[{"OBJECT_NAME":"ION SCV-004","OBJECT_ID":"2022-002K","EPOCH":"2026-03-09T16:32:03.244416","MEAN_MOTION":15.29369331,"ECCENTRICITY":0.00072157,"INCLINATION":97.2961,"RA_OF_ASC_NODE":128.2294,"ARG_OF_PERICENTER":1.6783,"MEAN_ANOMALY":358.448,"EPHEMERIS_TYPE":0,"CLASSIFICATION_TYPE":"U","NORAD_CAT_ID":50993,"ELEMENT_SET_NO":999,"REV_AT_EPOCH":23008,"BSTAR":0.00023198467,"MEAN_MOTION_DOT":6.538e-5,"MEAN_MOTION_DDOT":0},{"OBJECT_NAME":"STARLINK-30340","OBJECT_ID":"2023-144W","EPOCH":"2026-03-09T23:09:27.120672","MEAN_MOTION":15.26754223,"ECCENTRICITY":0.00019163,"INCLINATION":43.003,"RA_OF_ASC_NODE":283.2788,"ARG_OF_PERICENTER":285.74,"MEAN_ANOMALY":74.324,"EPHEMERIS_TYPE":0,"CLASSIFICATION_TYPE":"U","NORAD_CAT_ID":57884,"ELEMENT_SET_NO":999,"REV_AT_EPOCH":13768,"BSTAR":0.00014612406,"MEAN_MOTION_DOT":3.663e-5,"MEAN_MOTION_DDOT":0}]
